[{"OBJECT_NAME":"STARLINK-2536","OBJECT_ID":"2021-036AL","EPOCH":"2026-03-10T00:00:02.999808","MEAN_MOTION":15.25636252,"ECCENTRICITY":7.57e-5,"INCLINATION":53.142,"RA_OF_ASC_NODE":89.5333,"ARG_OF_PERICENTER":115.4986,"MEAN_ANOMALY":131.3346,"EPHEMERIS_TYPE":0,"CLASSIFICATION_TYPE":"U","NORAD_CAT_ID":48310,"ELEMENT_SET_NO":999,"REV_AT_EPOCH":579,"BSTAR":0.064824603,"MEAN_MOTION_DOT":0.01836196,"MEAN_MOTION_DDOT":0},{"OBJECT_NAME":"OBJECT BE","OBJECT_ID":"2025-313BE","EPOCH":"2026-03-09T16:43:59.380320","MEAN_MOTION":15.29801687,"ECCENTRICITY":0.00072083,"INCLINATION":97.3989,"RA_OF_ASC_NODE":145.3568,"ARG_OF_PERICENTER":335.3714,"MEAN_ANOMALY":24.7181,"EPHEMERIS_TYPE":0,"CLASSIFICATION_TYPE":"U","NORAD_CAT_ID":67482,"ELEMENT_SET_NO":999,"REV_AT_EPOCH":797,"BSTAR":0.0026504328,"MEAN_MOTION_DOT":0.00077178,"MEAN_MOTION_DDOT":0}]
